[{"OBJECT_NAME":"METEOSAT-11 (MSG-4)","OBJECT_ID":"2015-034A","EPOCH":"2026-03-04T09:02:38.798880","MEAN_MOTION":1.0026609,"ECCENTRICITY":0.00018032,"INCLINATION":2.9374,"RA_OF_ASC_NODE":71.6812,"ARG_OF_PERICENTER":270.6417,"MEAN_ANOMALY":324.8599,"EPHEMERIS_TYPE":0,"CLASSIFICATION_TYPE":"U","NORAD_CAT_ID":40732,"ELEMENT_SET_NO":999,"REV_AT_EPOCH":616,"BSTAR":0,"MEAN_MOTION_DOT":5.1e-7,"MEAN_MOTION_DDOT":0},{"OBJECT_NAME":"ELEKTRO-L 2","OBJECT_ID":"2015-074A","EPOCH":"2026-03-03T20:51:04.605984","MEAN_MOTION":1.00270829,"ECCENTRICITY":0.00034679,"INCLINATION":6.4296,"RA_OF_ASC_NODE":71.8188,"ARG_OF_PERICENTER":237.1165,"MEAN_ANOMALY":150.951,"EPHEMERIS_TYPE":0,"CLASSIFICATION_TYPE":"U","NORAD_CAT_ID":41105,"ELEMENT_SET_NO":999,"REV_AT_EPOCH":3745,"BSTAR":0,"MEAN_MOTION_DOT":-1.28e-6,"MEAN_MOTION_DDOT":0},{"OBJECT_NAME":"INSAT-3DR","OBJECT_ID":"2016-054A","EPOCH":"2026-03-04T15:00:10.557216","MEAN_MOTION":1.00272451,"ECCENTRICITY":0.0013224,"INCLINATION":0.0478,"RA_OF_ASC_NODE":96.4704,"ARG_OF_PERICENTER":185.395,"MEAN_ANOMALY":179.5257,"EPHEMERIS_TYPE":0,"CLASSIFICATION_TYPE":"U","NORAD_CAT_ID":41752,"ELEMENT_SET_NO":999,"REV_AT_EPOCH":3477,"BSTAR":0,"MEAN_MOTION_DOT":-8.8e-7,"MEAN_MOTION_DDOT":0},{"OBJECT_NAME":"HIMAWARI-9","OBJECT_ID":"2016-064A","EPOCH":"2026-03-04T19:50:09.555936","MEAN_MOTION":1.00272204,"ECCENTRICITY":0.0001187,"INCLINATION":0.0141,"RA_OF_ASC_NODE":177.2002,"ARG_OF_PERICENTER":193.3405,"MEAN_ANOMALY":230.3426,"EPHEMERIS_TYPE":0,"CLASSIFICATION_TYPE":"U","NORAD_CAT_ID":41836,"ELEMENT_SET_NO":999,"REV_AT_EPOCH":3416,"BSTAR":0,"MEAN_MOTION_DOT":-2.85e-6,"MEAN_MOTION_DDOT":0},{"OBJECT_NAME":"GOES 16","OBJECT_ID":"2016-071A","EPOCH":"2026-03-04T08:33:38.625984","MEAN_MOTION":1.00271047,"ECCENTRICITY":0.00025551,"INCLINATION":0.1377,"RA_OF_ASC_NODE":89.7852,"ARG_OF_PERICENTER":217.0177,"MEAN_ANOMALY":239.0082,"EPHEMERIS_TYPE":0,"CLASSIFICATION_TYPE":"U","NORAD_CAT_ID":41866,"ELEMENT_SET_NO":999,"REV_AT_EPOCH":3405,"BSTAR":0,"MEAN_MOTION_DOT":-1.02e-6,"MEAN_MOTION_DDOT":0},{"OBJECT_NAME":"FENGYUN 4A","OBJECT_ID":"2016-077A","EPOCH":"2026-03-04T19:43:08.185728","MEAN_MOTION":1.00279079,"ECCENTRICITY":0.0007422,"INCLINATION":2.0571,"RA_OF_ASC_NODE":81.4076,"ARG_OF_PERICENTER":135.722,"MEAN_ANOMALY":4.7929,"EPHEMERIS_TYPE":0,"CLASSIFICATION_TYPE":"U","NORAD_CAT_ID":41882,"ELEMENT_SET_NO":999,"REV_AT_EPOCH":3388,"BSTAR":0,"MEAN_MOTION_DOT":-3.66e-6,"MEAN_MOTION_DDOT":0},{"OBJECT_NAME":"CYGFM05","OBJECT_ID":"2016-078A","EPOCH":"2026-03-04T19:29:03.554016","MEAN_MOTION":15.5189125,"ECCENTRICITY":0.0007009,"INCLINATION":34.9568,"RA_OF_ASC_NODE":229.3599,"ARG_OF_PERICENTER":243.5267,"MEAN_ANOMALY":116.4737,"EPHEMERIS_TYPE":0,"CLASSIFICATION_TYPE":"U","NORAD_CAT_ID":41884,"ELEMENT_SET_NO":999,"REV_AT_EPOCH":51250,"BSTAR":0.00050267,"MEAN_MOTION_DOT":0.00031195,"MEAN_MOTION_DDOT":0},{"OBJECT_NAME":"CYGFM04","OBJECT_ID":"2016-078B","EPOCH":"2026-03-04T19:22:55.968672","MEAN_MOTION":15.55285936,"ECCENTRICITY":0.0006125,"INCLINATION":34.9331,"RA_OF_ASC_NODE":201.6341,"ARG_OF_PERICENTER":277.8368,"MEAN_ANOMALY":82.166,"EPHEMERIS_TYPE":0,"CLASSIFICATION_TYPE":"U","NORAD_CAT_ID":41885,"ELEMENT_SET_NO":999,"REV_AT_EPOCH":51270,"BSTAR":0.00052255,"MEAN_MOTION_DOT":0.00036729,"MEAN_MOTION_DDOT":0},{"OBJECT_NAME":"CYGFM02","OBJECT_ID":"2016-078C","EPOCH":"2026-03-04T14:06:16.902432","MEAN_MOTION":15.57532132,"ECCENTRICITY":0.0007082,"INCLINATION":34.9411,"RA_OF_ASC_NODE":200.0974,"ARG_OF_PERICENTER":277.0728,"MEAN_ANOMALY":82.919,"EPHEMERIS_TYPE":0,"CLASSIFICATION_TYPE":"U","NORAD_CAT_ID":41886,"ELEMENT_SET_NO":999,"REV_AT_EPOCH":51281,"BSTAR":0.0013695,"MEAN_MOTION_DOT":0.00105694,"MEAN_MOTION_DDOT":0},{"OBJECT_NAME":"CYGFM01","OBJECT_ID":"2016-078D","EPOCH":"2026-03-04T18:37:34.995936","MEAN_MOTION":15.52324779,"ECCENTRICITY":0.0006756,"INCLINATION":34.9398,"RA_OF_ASC_NODE":231.4079,"ARG_OF_PERICENTER":235.7236,"MEAN_ANOMALY":124.2847,"EPHEMERIS_TYPE":0,"CLASSIFICATION_TYPE":"U","NORAD_CAT_ID":41887,"ELEMENT_SET_NO":999,"REV_AT_EPOCH":51244,"BSTAR":0.00052532,"MEAN_MOTION_DOT":0.00033124,"MEAN_MOTION_DDOT":0},{"OBJECT_NAME":"CYGFM08","OBJECT_ID":"2016-078E","EPOCH":"2026-03-04T18:15:41.361696","MEAN_MOTION":15.53803731,"ECCENTRICITY":0.0008174,"INCLINATION":34.9433,"RA_OF_ASC_NODE":213.433,"ARG_OF_PERICENTER":260.1172,"MEAN_ANOMALY":99.8629,"EPHEMERIS_TYPE":0,"CLASSIFICATION_TYPE":"U","NORAD_CAT_ID":41888,"ELEMENT_SET_NO":999,"REV_AT_EPOCH":51268,"BSTAR":0.00051617,"MEAN_MOTION_DOT":0.00034366,"MEAN_MOTION_DDOT":0},{"OBJECT_NAME":"CYGFM07","OBJECT_ID":"2016-078G","EPOCH":"2026-03-04T17:30:42.422688","MEAN_MOTION":15.54493591,"ECCENTRICITY":0.0006667,"INCLINATION":34.9455,"RA_OF_ASC_NODE":202.1182,"ARG_OF_PERICENTER":280.0575,"MEAN_ANOMALY":79.9396,"EPHEMERIS_TYPE":0,"CLASSIFICATION_TYPE":"U","NORAD_CAT_ID":41890,"ELEMENT_SET_NO":999,"REV_AT_EPOCH":51270,"BSTAR":0.00051978,"MEAN_MOTION_DOT":0.00035481,"MEAN_MOTION_DDOT":0},{"OBJECT_NAME":"CYGFM03","OBJECT_ID":"2016-078H","EPOCH":"2026-03-04T18:21:34.461216","MEAN_MOTION":15.54513472,"ECCENTRICITY":0.000596,"INCLINATION":34.9407,"RA_OF_ASC_NODE":203.8627,"ARG_OF_PERICENTER":266.0807,"MEAN_ANOMALY":93.9235,"EPHEMERIS_TYPE":0,"CLASSIFICATION_TYPE":"U","NORAD_CAT_ID":41891,"ELEMENT_SET_NO":999,"REV_AT_EPOCH":51268,"BSTAR":0.00053421,"MEAN_MOTION_DOT":0.00036492,"MEAN_MOTION_DDOT":0},{"OBJECT_NAME":"FENGYUN 3D","OBJECT_ID":"2017-072A","EPOCH":"2026-03-04T20:15:02.758752","MEAN_MOTION":14.19712541,"ECCENTRICITY":0.0001806,"INCLINATION":99.0018,"RA_OF_ASC_NODE":36.4401,"ARG_OF_PERICENTER":22.7704,"MEAN_ANOMALY":337.3551,"EPHEMERIS_TYPE":0,"CLASSIFICATION_TYPE":"U","NORAD_CAT_ID":43010,"ELEMENT_SET_NO":999,"REV_AT_EPOCH":43018,"BSTAR":7.7133e-6,"MEAN_MOTION_DOT":-3.0e-7,"MEAN_MOTION_DDOT":0},{"OBJECT_NAME":"NOAA 20 (JPSS-1)","OBJECT_ID":"2017-073A","EPOCH":"2026-03-04T18:04:58.867104","MEAN_MOTION":14.19534546,"ECCENTRICITY":9.82e-5,"INCLINATION":98.7687,"RA_OF_ASC_NODE":4.1898,"ARG_OF_PERICENTER":144.1759,"MEAN_ANOMALY":215.9483,"EPHEMERIS_TYPE":0,"CLASSIFICATION_TYPE":"U","NORAD_CAT_ID":43013,"ELEMENT_SET_NO":999,"REV_AT_EPOCH":42965,"BSTAR":6.9077e-5,"MEAN_MOTION_DOT":1.02e-6,"MEAN_MOTION_DDOT":0},{"OBJECT_NAME":"GOES 17","OBJECT_ID":"2018-022A","EPOCH":"2026-03-04T08:25:38.679168","MEAN_MOTION":1.00270359,"ECCENTRICITY":0.0002253,"INCLINATION":0.668,"RA_OF_ASC_NODE":87.5564,"ARG_OF_PERICENTER":221.55,"MEAN_ANOMALY":249.8945,"EPHEMERIS_TYPE":0,"CLASSIFICATION_TYPE":"U","NORAD_CAT_ID":43226,"ELEMENT_SET_NO":999,"REV_AT_EPOCH":2937,"BSTAR":0,"MEAN_MOTION_DOT":-1.94e-6,"MEAN_MOTION_DDOT":0},{"OBJECT_NAME":"FENGYUN 2H","OBJECT_ID":"2018-050A","EPOCH":"2026-03-04T16:15:27.570816","MEAN_MOTION":1.00272622,"ECCENTRICITY":0.0001895,"INCLINATION":2.7614,"RA_OF_ASC_NODE":80.3546,"ARG_OF_PERICENTER":174.936,"MEAN_ANOMALY":230.062,"EPHEMERIS_TYPE":0,"CLASSIFICATION_TYPE":"U","NORAD_CAT_ID":43491,"ELEMENT_SET_NO":999,"REV_AT_EPOCH":2839,"BSTAR":0,"MEAN_MOTION_DOT":-1.36e-6,"MEAN_MOTION_DDOT":0}]
