METEOSAT-11 (MSG-4)     
1 40732U 15034A   26063.37683795  .00000051  00000+0  00000+0 0  9998
2 40732   2.9374  71.6812 0001803 270.6417 324.8599  1.00266090  6164
ELEKTRO-L 2             
1 41105U 15074A   26062.86880331 -.00000128  00000+0  00000+0 0  9991
2 41105   6.4296  71.8188 0003467 237.1165 150.9510  1.00270829 37457
INSAT-3DR               
1 41752U 16054A   26063.62512219 -.00000088  00000+0  00000+0 0  9995
2 41752   0.0478  96.4704 0013224 185.3950 179.5257  1.00272451 34772
HIMAWARI-9              
1 41836U 16064A   26063.82649949 -.00000285  00000+0  00000+0 0  9991
2 41836   0.0141 177.2002 0001187 193.3405 230.3426  1.00272204 34163
GOES 16                 
1 41866U 16071A   26063.35669706 -.00000102  00000+0  00000+0 0  9991
2 41866   0.1377  89.7852 0002555 217.0177 239.0082  1.00271047 34054
FENGYUN 4A              
1 41882U 16077A   26063.82162252 -.00000366  00000+0  00000+0 0  9993
2 41882   2.0571  81.4076 0007422 135.7220   4.7929  1.00279079 33889
CYGFM05                 
1 41884U 16078A   26063.81184669  .00031195  00000+0  50267-3 0  9998
2 41884  34.9568 229.3599 0007009 243.5267 116.4737 15.51891250512505
CYGFM04                 
1 41885U 16078B   26063.80759223  .00036729  00000+0  52255-3 0  9999
2 41885  34.9331 201.6341 0006125 277.8368  82.1660 15.55285936512700
CYGFM02                 
1 41886U 16078C   26063.58769563  .00105694  00000+0  13695-2 0  9995
2 41886  34.9411 200.0974 0007082 277.0728  82.9190 15.57532132512813
CYGFM01                 
1 41887U 16078D   26063.77609949  .00033124  00000+0  52532-3 0  9990
2 41887  34.9398 231.4079 0006756 235.7236 124.2847 15.52324779512443
CYGFM08                 
1 41888U 16078E   26063.76089539  .00034366  00000+0  51617-3 0  9999
2 41888  34.9433 213.4330 0008174 260.1172  99.8629 15.53803731512683
CYGFM07                 
1 41890U 16078G   26063.72965767  .00035481  00000+0  51978-3 0  9993
2 41890  34.9455 202.1182 0006667 280.0575  79.9396 15.54493591512706
CYGFM03                 
1 41891U 16078H   26063.76498219  .00036492  00000+0  53421-3 0  9999
2 41891  34.9407 203.8627 0005960 266.0807  93.9235 15.54513472512689
FENGYUN 3D              
1 43010U 17072A   26063.84378193 -.00000030  00000+0  77133-5 0  9994
2 43010  99.0018  36.4401 0001806  22.7704 337.3551 14.19712541430180
NOAA 20 (JPSS-1)        
1 43013U 17073A   26063.75345911  .00000102  00000+0  69077-4 0  9996
2 43013  98.7687   4.1898 0000982 144.1759 215.9483 14.19534546429658
GOES 17                 
1 43226U 18022A   26063.35114212 -.00000194  00000+0  00000+0 0  9999
2 43226   0.6680  87.5564 0002253 221.5500 249.8945  1.00270359 29370
FENGYUN 2H              
1 43491U 18050A   26063.67740244 -.00000136  00000+0  00000+0 0  9995
2 43491   2.7614  80.3546 0001895 174.9360 230.0620  1.00272622 28399
